{"type": "FeatureCollection", "meta": {"fake": true, "generated_by": "pipeline/make_fixtures.py (FAKE toy data, not results)", "generated_at": "2026-09-26T18:11:49+00:00"}, "features": [{"type": "Feature", "geometry": {"type": "LineString", "coordinates": [[-80.2, 25.79], [-80.19, 25.79]]}, "properties": {"id": "L01", "a_node": "n1", "b_node": "n2", "name": "FAKE Primary St 1", "road_class": "primary", "lanes": 2, "capacity_vph": 1800, "fftt_min": 0.933, "length_m": 1001.2, "in_focus": true}}, {"type": "Feature", "geometry": {"type": "LineString", "coordinates": [[-80.19, 25.79], [-80.2, 25.79]]}, "properties": {"id": "L02", "a_node": "n2", "b_node": "n1", "name": "FAKE Primary St 1", "road_class": "primary", "lanes": 2, "capacity_vph": 1800, "fftt_min": 0.933, "length_m": 1001.2, "in_focus": true}}, {"type": "Feature", "geometry": {"type": "LineString", "coordinates": [[-80.19, 25.79], [-80.18, 25.79]]}, "properties": {"id": "L03", "a_node": "n2", "b_node": "n3", "name": "FAKE Primary St 2", "road_class": "primary", "lanes": 2, "capacity_vph": 1800, "fftt_min": 0.933, "length_m": 1001.2, "in_focus": true}}, {"type": "Feature", "geometry": {"type": "LineString", "coordinates": [[-80.18, 25.79], [-80.19, 25.79]]}, "properties": {"id": "L04", "a_node": "n3", "b_node": "n2", "name": "FAKE Primary St 2", "road_class": "primary", "lanes": 2, "capacity_vph": 1800, "fftt_min": 0.933, "length_m": 1001.2, "in_focus": true}}, {"type": "Feature", "geometry": {"type": "LineString", "coordinates": [[-80.2, 25.775], [-80.19, 25.775]]}, "properties": {"id": "L05", "a_node": "n4", "b_node": "n5", "name": "FAKE Secondary St 3", "road_class": "secondary", "lanes": 1, "capacity_vph": 800, "fftt_min": 1.067, "length_m": 1001.3, "in_focus": true}}, {"type": "Feature", "geometry": {"type": "LineString", "coordinates": [[-80.19, 25.775], [-80.2, 25.775]]}, "properties": {"id": "L06", "a_node": "n5", "b_node": "n4", "name": "FAKE Secondary St 3", "road_class": "secondary", "lanes": 1, "capacity_vph": 800, "fftt_min": 1.067, "length_m": 1001.3, "in_focus": true}}, {"type": "Feature", "geometry": {"type": "LineString", "coordinates": [[-80.19, 25.775], [-80.18, 25.775]]}, "properties": {"id": "L07", "a_node": "n5", "b_node": "n6", "name": "FAKE Secondary St 4", "road_class": "secondary", "lanes": 1, "capacity_vph": 800, "fftt_min": 1.067, "length_m": 1001.3, "in_focus": true}}, {"type": "Feature", "geometry": {"type": "LineString", "coordinates": [[-80.18, 25.775], [-80.19, 25.775]]}, "properties": {"id": "L08", "a_node": "n6", "b_node": "n5", "name": "FAKE Secondary St 4", "road_class": "secondary", "lanes": 1, "capacity_vph": 800, "fftt_min": 1.067, "length_m": 1001.3, "in_focus": true}}, {"type": "Feature", "geometry": {"type": "LineString", "coordinates": [[-80.2, 25.79], [-80.2, 25.775]]}, "properties": {"id": "L09", "a_node": "n1", "b_node": "n4", "name": "FAKE Tertiary St 5", "road_class": "tertiary", "lanes": 1, "capacity_vph": 700, "fftt_min": 2.073, "length_m": 1667.9, "in_focus": true}}, {"type": "Feature", "geometry": {"type": "LineString", "coordinates": [[-80.2, 25.775], [-80.2, 25.79]]}, "properties": {"id": "L10", "a_node": "n4", "b_node": "n1", "name": "FAKE Tertiary St 5", "road_class": "tertiary", "lanes": 1, "capacity_vph": 700, "fftt_min": 2.073, "length_m": 1667.9, "in_focus": true}}, {"type": "Feature", "geometry": {"type": "LineString", "coordinates": [[-80.19, 25.79], [-80.19, 25.775]]}, "properties": {"id": "L11", "a_node": "n2", "b_node": "n5", "name": "FAKE Trunk St 6", "road_class": "trunk", "lanes": 2, "capacity_vph": 3600, "fftt_min": 1.244, "length_m": 1667.9, "in_focus": true}}, {"type": "Feature", "geometry": {"type": "LineString", "coordinates": [[-80.19, 25.775], [-80.19, 25.79]]}, "properties": {"id": "L12", "a_node": "n5", "b_node": "n2", "name": "FAKE Trunk St 6", "road_class": "trunk", "lanes": 2, "capacity_vph": 3600, "fftt_min": 1.244, "length_m": 1667.9, "in_focus": true}}, {"type": "Feature", "geometry": {"type": "LineString", "coordinates": [[-80.18, 25.79], [-80.18, 25.775]]}, "properties": {"id": "L13", "a_node": "n3", "b_node": "n6", "name": "FAKE Tertiary St 7", "road_class": "tertiary", "lanes": 1, "capacity_vph": 700, "fftt_min": 2.073, "length_m": 1667.9, "in_focus": true}}, {"type": "Feature", "geometry": {"type": "LineString", "coordinates": [[-80.18, 25.775], [-80.18, 25.79]]}, "properties": {"id": "L14", "a_node": "n6", "b_node": "n3", "name": "FAKE Tertiary St 7", "road_class": "tertiary", "lanes": 1, "capacity_vph": 700, "fftt_min": 2.073, "length_m": 1667.9, "in_focus": true}}, {"type": "Feature", "geometry": {"type": "LineString", "coordinates": [[-80.2, 25.775], [-80.195, 25.76]]}, "properties": {"id": "L15", "a_node": "n4", "b_node": "n7", "name": "FAKE Secondary St 8", "road_class": "secondary", "lanes": 1, "capacity_vph": 800, "fftt_min": 1.855, "length_m": 1741.5, "in_focus": true}}, {"type": "Feature", "geometry": {"type": "LineString", "coordinates": [[-80.195, 25.76], [-80.2, 25.775]]}, "properties": {"id": "L16", "a_node": "n7", "b_node": "n4", "name": "FAKE Secondary St 8", "road_class": "secondary", "lanes": 1, "capacity_vph": 800, "fftt_min": 1.855, "length_m": 1741.5, "in_focus": true}}, {"type": "Feature", "geometry": {"type": "LineString", "coordinates": [[-80.18, 25.775], [-80.185, 25.76]]}, "properties": {"id": "L17", "a_node": "n6", "b_node": "n8", "name": "FAKE Secondary St 9", "road_class": "secondary", "lanes": 1, "capacity_vph": 800, "fftt_min": 1.855, "length_m": 1741.5, "in_focus": true}}, {"type": "Feature", "geometry": {"type": "LineString", "coordinates": [[-80.185, 25.76], [-80.18, 25.775]]}, "properties": {"id": "L18", "a_node": "n8", "b_node": "n6", "name": "FAKE Secondary St 9", "road_class": "secondary", "lanes": 1, "capacity_vph": 800, "fftt_min": 1.855, "length_m": 1741.5, "in_focus": true}}, {"type": "Feature", "geometry": {"type": "LineString", "coordinates": [[-80.195, 25.76], [-80.185, 25.76]]}, "properties": {"id": "L19", "a_node": "n7", "b_node": "n8", "name": "FAKE Primary St 10", "road_class": "primary", "lanes": 2, "capacity_vph": 1800, "fftt_min": 0.933, "length_m": 1001.4, "in_focus": true}}, {"type": "Feature", "geometry": {"type": "LineString", "coordinates": [[-80.185, 25.76], [-80.195, 25.76]]}, "properties": {"id": "L20", "a_node": "n8", "b_node": "n7", "name": "FAKE Primary St 10", "road_class": "primary", "lanes": 2, "capacity_vph": 1800, "fftt_min": 0.933, "length_m": 1001.4, "in_focus": true}}]}